332P-B/Ikeya-Murakami,e,9.3805,3.8028,152.3711,3.082329,0.1821317,0.48970701,359.9699,03/17.0/2016,2000,g 19.0,4.0
# From MPEC 2016-K18
332P-C/Ikeya-Murakami,e,9.3791,3.7862,152.3014,3.087942,0.1816354,0.48933329,74.7854,10/04.0/2022,2000,g 16.5,4.0
# From MPEC 2016-ED0
332P-D/Ikeya-Murakami,e,9.3761,3.7923,152.4393,3.081138,0.1822373,0.48977814,359.9486,03/17.0/2016,2000,g 19.0,4.0
# From MPEC 2016-ED0
332P-E/Ikeya-Murakami,e,9.3774,3.8228,152.2825,3.079877,0.1823493,0.48922008,359.9889,03/17.0/2016,2000,g 21.0,4.0
# From MPEC 2016-ED0
332P-F/Ikeya-Murakami,e,9.5293,3.4757,152.8203,3.163214,0.1751908,0.49918860,359.8501,03/17.0/2016,2000,g 21.0,4.0
# From MPEC 2016-ED0
332P-G/Ikeya-Murakami,e,9.2523,3.6955,154.4000,3.050519,0.1849880,0.49200362,359.9006,03/19.0/2016,2000,g 19.0,4.0
# From MPC100285
332P-H/Ikeya-Murakami,e,9.3797,3.7859,152.3020,3.088125,0.1816192,0.48936857,74.7136,10/04.0/2022,2000,g 19.0,4.0
# From MPEC 2016-ED0
332P-I/Ikeya-Murakami,e,9.3791,3.8048,152.3297,3.081767,0.1821815,0.48955490,359.9360,03/17.0/2016,2000,g 20.5,2.0
# From MPEC 2016-EI8
332P-J/Ikeya-Murakami,e,9.4296,3.6729,152.7712,3.115165,0.1792596,0.49429435,359.8613,03/17.0/2016,2000,g 20.5,2.0
# From MPEC 2020-L06
333P/LINEAR,e,132.0026,115.6535,25.9843,4.221122,0.1136481,0.73649566,270.5389,10/04.0/2022,2000,g 15.0,4.0
# From MPC115888
334P/NEAT,e,20.4000,90.5985,90.1035,6.836894,0.0551335,0.35058254,107.3931,10/04.0/2022,2000,g 10.5,4.0
# From MPEC 2021-U31
335P/Gibbs,e,7.2932,330.8473,162.3076,3.578242,0.1456128,0.54619022,7.7160,10/04.0/2022,2000,g 17.0,4.0
# From MPC105244
336P/McNaught,e,17.8279,298.2619,308.7136,5.035637,0.0872213,0.44408479,180.7381,10/04.0/2022,2000,g 13.5,4.0
# From MPEC 2022-QD9
337P/WISE,e,15.3710,106.0602,161.0421,3.285839,0.1654759,0.49660171,15.6912,10/04.0/2022,2000,g 17.0,4.0
# From MPEC 2022-K19
338P/McNaught,e,25.3865,9.7999,4.4762,3.894314,0.1282501,0.41206759,274.2277,10/04.0/2022,2000,g 12.0,4.0
# From MPC101101
339P/Gibbs,e,5.7332,172.7229,27.4757,3.699215,0.1385287,0.63553570,314.1494,10/04.0/2022,2000,g 17.0,4.0
# From MPC133426
340P/Boattini,e,2.0781,291.6716,35.9895,4.250243,0.1124821,0.28079900,240.8333,10/04.0/2022,2000,g 14.3,4.0
# From MPEC 2022-K19
341P/Gibbs,e,3.7972,29.9679,312.2515,4.291013,0.1108828,0.41575324,256.7528,10/04.0/2022,2000,g 12.5,4.0
# From MPC101101
342P/SOHO,e,11.6668,27.7113,73.2556,3.041487,0.1858126,0.98277644,0.0000,10/19.2856/2021,2000,g  9.0,4.0
# From MPEC 2022-K19
343P/NEAT-LONEOS,e,5.5897,257.1255,137.4596,5.458174,0.0772917,0.58505977,160.1805,10/04.0/2022,2000,g 14.0,4.0
# From MPC109148
344P/Read,e,3.4942,273.1275,140.4259,4.861765,0.0919418,0.42303518,198.6723,10/04.0/2022,2000,g 13.0,4.0
# From MPEC 2022-K19
345P/LINEAR,e,2.7275,154.5151,196.5504,4.035330,0.1215865,0.22150026,275.3781,10/04.0/2022,2000,g 12.0,4.0
# From MPEC 2022-K19
346P/Catalina,e,22.1997,102.4539,335.9564,4.473628,0.1041632,0.50309959,214.3949,10/04.0/2022,2000,g 14.0,4.0
# From MPEC 2022-K19
347P/PANSTARRS,e,11.7540,261.0209,98.4251,3.604261,0.1440389,0.38610092,318.3629,10/04.0/2022,2000,g 15.0,4.0
# From MPEC 2022-ED3
348P/PANSTARRS,e,17.7387,312.9412,135.6735,3.151360,0.1761802,0.30700781,41.1268,10/04.0/2022,2000,g 14.0,4.0
# From MPEC 2022-K19
349P/Lemmon,e,5.4904,331.7519,255.9233,3.575748,0.1457652,0.29843645,272.3155,10/04.0/2022,2000,g 14.0,4.0
# From MPC111775
350P/McNaught,e,7.3630,65.2956,139.6967,4.085425,0.1193571,0.09308914,209.5912,10/04.0/2022,2000,g 14.0,4.0
# From MPC105244
351P/Wiegert-PANSTARRS,e,12.7801,283.4288,352.6802,4.438926,0.1053871,0.29521498,264.6707,10/04.0/2022,2000,g 12.5,4.0
# From MPC110086
352P/Skiff,e,21.0128,28.0077,309.3311,6.644124,0.0575503,0.61794282,111.0183,10/04.0/2022,2000,g 11.5,4.0
# From MPEC 2020-AA5
353P/McNaught,e,28.4135,121.5350,230.4582,4.170691,0.1157156,0.47038570,202.0025,10/04.0/2022,2000,g 14.5,4.0
# From MPC105545
354P/LINEAR,e,5.2541,320.1304,132.7331,2.290351,0.2843486,0.12534723,253.3764,10/04.0/2022,2000,g 15.5,4.0
# From MPEC 2020-AA5
355P/LINEAR-NEAT,e,11.0461,51.4318,336.2998,3.469886,0.1524865,0.50780816,276.8173,10/04.0/2022,2000,g 15.5,2.0
# From MPEC 2022-F14
356P/WISE,e,9.6380,160.7970,226.0322,4.157259,0.1162769,0.35580467,203.4286,10/04.0/2022,2000,g 14.0,4.0
# From MPC114609
357P/Hill,e,6.3156,44.5582,1.3966,4.458221,0.1047036,0.43564776,166.2226,10/04.0/2022,2000,g 15.5,4.0
# From MPEC 2020-HN5
358P/PANSTARRS,e,11.0604,85.7027,299.7789,3.146576,0.1765821,0.23892910,288.8031,10/04.0/2022,2000,g 18.0,4.0
# From MPC110086
359P/LONEOS,e,10.2664,149.7538,200.2533,4.640048,0.0986099,0.32418077,184.1834,10/04.0/2022,2000,g 13.5,4.0
# From MPC108599
360P/WISE,e,24.1120,2.1922,354.1868,3.700315,0.1384669,0.49928850,258.8431,10/04.0/2022,2000,g 19.5,6.0
# From MPC114609
361P/Spacewatch,e,13.9021,203.2567,219.0015,4.935811,0.0898807,0.43889298,139.6436,10/04.0/2022,2000,g 12.0,4.0
# From MPEC 2017-V13
362P/,e,15.5568,192.5460,53.6266,3.971410,0.1245337,0.27880541,278.3494,10/04.0/2022,2000,g 12.9,2.0
# From MPC114609
363P/Lemmon,e,5.4069,146.8828,340.9896,3.565853,0.1463723,0.52029598,247.1321,10/04.0/2022,2000,g 17.5,4.0
# From MPEC 2022-K19
364P/PANSTARRS,e,12.1349,46.1583,212.0142,2.880106,0.2016468,0.72182484,315.2315,10/04.0/2022,2000,g 17.0,2.0
# From MPC111775
365P/PANSTARRS,e,9.8362,86.3728,67.5937,3.160687,0.1754009,0.58138183,295.0525,10/04.0/2022,2000,g 17.0,4.0
# From MPC114610
366P/Spacewatch,e,8.8571,70.7630,153.0579,3.496763,0.1507318,0.34802631,231.8095,10/04.0/2022,2000,g 15.0,4.0
# From MPC112395
367P/Catalina,e,8.4598,58.7197,172.8192,3.507421,0.1500453,0.27977385,235.2752,10/04.0/2022,2000,g 17.5,2.0
# From MPC114610
368P/NEAT,e,15.4816,257.8652,118.8935,5.529058,0.0758101,0.62674277,112.1612,10/04.0/2022,2000,g 14.0,4.0
# From MPC114610
369P/Hill,e,10.3227,47.2908,13.1538,4.381940,0.1074495,0.55524541,155.6781,10/04.0/2022,2000,g 15.0,4.0
# From MPEC 2021-F20
370P/NEAT,e,19.4216,55.0759,356.6966,6.434405,0.0603867,0.61524380,95.1917,10/04.0/2022,2000,g 13.0,4.0
# From MPC114610
371P/LINEAR-Skiff,e,17.3835,67.2515,308.5397,4.180667,0.1153017,0.47707630,168.2198,10/04.0/2022,2000,g 16.0,4.0
# From MPEC 2020-K19
372P/McNaught,e,9.5078,325.8179,27.5811,4.507442,0.1029933,0.15258807,148.4099,10/04.0/2022,2000,g 13.5,4.0
# From MPEC 2021-F20
373P/Rinner,e,13.7687,231.9590,221.0136,3.801272,0.1329875,0.39274278,169.4362,10/04.0/2022,2000,g 14.5,4.0
# From MPC114610
374P/Larson,e,10.7669,7.9151,51.4466,4.971728,0.0889085,0.46324034,121.0404,10/04.0/2022,2000,g 14.0,4.0
# From MPEC 2021-F20
375P/Hill,e,17.3615,359.9499,119.3767,5.550895,0.0753632,0.65882310,104.2387,10/04.0/2022,2000,g 16.0,4.0
# From MPEC 2022-K19
376P/LONEOS,e,1.1749,313.9075,284.7500,5.776252,0.0709962,0.51634433,78.5996,10/04.0/2022,2000,g 12.5,4.0
# From MPEC 2022-N37
377P/Scotti,e,9.0242,226.0667,355.0384,6.705039,0.0567678,0.25154386,46.2243,10/04.0/2022,2000,g  9.5,4.0
# From MPEC 2022-ST7
378P/McNaught,e,19.0537,94.1286,193.6654,6.334838,0.0618160,0.46783521,44.3360,10/04.0/2022,2000,g 12.0,4.0
# From MPC115889
379P/Spacewatch,e,12.4524,183.8390,30.5746,3.509605,0.1499052,0.34335563,173.6522,10/04.0/2022,2000,g 15.0,4.0
# From MPEC 2022-K19
380P/PANSTARRS,e,8.1557,131.9470,86.3786,4.429641,0.1057186,0.34146568,129.6767,10/04.0/2022,2000,g 14.6,4.0
# From MPEC 2021-J28
381P/LINEAR-Spacewatch,e,28.3787,173.7583,173.2719,7.134708,0.0517178,0.68186453,57.0347,10/04.0/2022,2000,g 17.5,2.0
# From MPEC 2022-ST7
382P/Larson,e,8.4575,173.7377,167.3101,6.275227,0.0626989,0.29818673,16.2802,10/04.0/2022,2000,g  8.0,4.0
# From MPEC 2022-OB6
383P/Christensen,e,12.3252,207.8263,133.7671,3.546708,0.1475591,0.59946989,158.3974,10/04.0/2022,2000,g 18.0,4.0
# From MPEC 2022-OB6
384P/Kowalski,e,7.2842,354.2284,37.6305,2.900125,0.1995625,0.61611241,217.0883,10/04.0/2022,2000,g 19.5,4.0
# From MPEC 2021-F20
385P/Hill,e,16.8322,357.0605,44.3349,4.288459,0.1109819,0.40196659,123.6895,10/04.0/2022,2000,g 13.0,4.0
# From MPEC 2021-L04
386P/PANSTARRS,e,15.2307,134.9387,353.1301,4.053391,0.1207748,0.41631555,93.7160,10/04.0/2022,2000,g 14.5,4.0
# From MPEC 2021-J28
387P/Boattini,e,8.9280,259.2629,162.7904,4.797074,0.0938079,0.73664863,105.3686,10/04.0/2022,2000,g 15.0,4.0
# From MPEC 2021-S45
388P/Gibbs,e,23.8857,37.0455,42.3015,5.241433,0.0821351,0.61855286,95.9313,10/04.0/2022,2000,g 13.0,4.0
# From MPEC 2022-OB6
389P/Siding Spring,e,160.0828,218.8740,249.3852,5.632640,0.0737286,0.70437240,74.4337,10/04.0/2022,2000,g 16.0,4.0
# From MPEC 2022-OB6
390P/Gibbs,e,18.5595,152.2728,232.3818,5.808941,0.0703977,0.70741788,65.1455,10/04.0/2022,2000,g 12.0,4.0
# From MPEC 2021-F20
391P/Kowalski,e,21.2696,124.7382,187.2980,4.683319,0.0972464,0.11995227,161.0839,10/04.0/2022,2000,g  8.0,4.0
# From MPEC 2021-J28
392P/LINEAR,e,4.9320,24.8865,71.8851,6.141140,0.0647635,0.68307118,59.3258,10/04.0/2022,2000,g 14.5,4.0
# From MPEC 2021-BE3
393P/Spacewatch-Hill,e,16.7876,36.3963,328.7237,4.791527,0.0939708,0.12064247,100.6057,10/04.0/2022,2000,g 11.0,4.0
# From MPEC 2020-KB7
394P/PANSTARRS,e,8.5294,98.1255,54.4754,4.330607,0.1093656,0.36743624,113.6667,10/04.0/2022,2000,g 16.0,2.4
# From MPEC 2022-ST7
395P/Catalina-NEAT,e,3.2897,223.1269,90.5938,6.638338,0.0576255,0.38756373,15.8850,10/04.0/2022,2000,g 10.0,4.0
# From MPEC 2020-KB7
396P/,e,5.4367,136.6559,8.4399,6.807952,0.0554855,0.41571732,62.8879,10/04.0/2022,2000,g 12.0,4.0
# From MPEC 2022-OB6
397P/Lemmon,e,10.9298,8.1947,14.5079,3.829614,0.1315139,0.40529221,109.9796,10/04.0/2022,2000,g 12.0,4.0
# From MPEC 2021-L04
398P/Boattini,e,11.0161,127.4472,320.2028,3.126878,0.1782533,0.58292907,115.1794,10/04.0/2022,2000,g 15.5,4.0
# From MPEC 2022-M88
399P/PANSTARRS,e,13.3207,207.1327,214.3395,3.791631,0.1334950,0.44720949,66.6503,10/04.0/2022,2000,g 14.0,4.0
# From MPEC 2022-ED3
400P/PANSTARRS,e,10.9303,176.3915,238.8187,3.561399,0.1466470,0.40949232,88.0921,10/04.0/2022,2000,g 15.5,2.8
# From MPEC 2022-K19
